NORAD_CAT_ID,OBJECT_NAME,OBJECT_TYPE,EPOCH,MEAN_MOTION,ECCENTRICITY,INCLINATION,RA_OF_ASC_NODE,ARG_OF_PERICENTER,MEAN_ANOMALY,BSTAR,MEAN_MOTION_DOT,MEAN_MOTION_DDOT,TLE_LINE0,TLE_LINE1,TLE_LINE2,SEMIMAJOR_AXIS,PERIOD,APOGEE,PERIGEE,DECAYED
53544.0,STARLINK-4303,PAYLOAD,2023-09-08 04:07:09,15.08842059,0.0001297,53.2169,205.0586,87.1466,272.9674,9.5003e-05,1.224e-05,0.0,0 STARLINK-4303,1 53544U 22101T   23251.17163401  .00001224  00000-0  95003-4 0  9993,2 53544  53.2169 205.0586 0001297  87.1466 272.9674 15.08842059 59065,6917.874,95.437,540.636,538.842,0.0
53544.0,STARLINK-4303,PAYLOAD,2023-09-08 20:01:01,15.08835577,0.0001443,53.2177,202.0879,89.5757,270.54,8.251e-05,1.025e-05,0.0,0 STARLINK-4303,1 53544U 22101T   23251.83403971  .00001025  00000-0  82510-4 0  9993,2 53544  53.2177 202.0879 0001443  89.5757 270.5400 15.08835577 59167,6917.894,95.438,540.757,538.761,0.0
53544.0,STARLINK-4303,PAYLOAD,2023-09-09 02:22:33,15.08836236,0.0001385,53.2176,200.8973,92.332,267.783,3.3845e-05,2.51e-06,0.0,0 STARLINK-4303,1 53544U 22101T   23252.09900216  .00000251  00000-0  33845-4 0  9993,2 53544  53.2176 200.8973 0001385  92.3320 267.7830 15.08836236 58538,6917.892,95.438,540.715,538.799,0.0
53544.0,STARLINK-4303,PAYLOAD,2023-09-09 13:30:15,15.08843498,0.0001216,53.2173,198.8151,89.6265,270.4867,-4.1799e-05,-9.53e-06,0.0,0 STARLINK-4303,1 53544U 22101T   23252.56267996 -.00000953  00000-0 -41799-4 0  9994,2 53544  53.2173 198.8151 0001216  89.6265 270.4867 15.08843498 59270,6917.87,95.437,540.576,538.893,0.0
53544.0,STARLINK-4303,PAYLOAD,2023-09-10 02:13:20,15.08844966,0.0001363,53.217,196.4361,91.3292,268.7856,4.9395e-05,4.98e-06,0.0,0 STARLINK-4303,1 53544U 22101T   23253.09259737  .00000498  00000-0  49395-4 0  9999,2 53544  53.2170 196.4361 0001363  91.3292 268.7856 15.08844966 58680,6917.865,95.437,540.673,538.787,0.0
53544.0,STARLINK-4303,PAYLOAD,2023-09-10 06:59:29,15.08849591,0.000136,53.2169,195.5435,89.734,270.3808,8.3792e-05,1.046e-05,0.0,0 STARLINK-4303,1 53544U 22101T   23253.29131270  .00001046  00000-0  83792-4 0  9991,2 53544  53.2169 195.5435 0001360  89.7340 270.3808 15.08849591 59385,6917.851,95.437,540.657,538.775,0.0
53544.0,STARLINK-4303,PAYLOAD,2023-09-11 02:04:08,15.08834429,0.0001266,53.2178,191.9725,85.1459,274.9678,-2.741e-06,-3.31e-06,0.0,0 STARLINK-4303,1 53544U 22101T   23254.08620715 -.00000331  00000-0 -27410-5 0  9990,2 53544  53.2178 191.9725 0001266  85.1459 274.9678 15.08834429 58831,6917.897,95.438,540.638,538.887,0.0
53544.0,STARLINK-4303,PAYLOAD,2023-09-11 13:11:49,15.08838439,0.0001331,53.2175,189.8898,95.1065,265.0079,3.5306e-05,2.74e-06,0.0,0 STARLINK-4303,1 53544U 22101T   23254.54988326  .00000274  00000-0  35306-4 0  9992,2 53544  53.2175 189.8898 0001331  95.1065 265.0079 15.08838439 59575,6917.885,95.438,540.671,538.829,0.0
53544.0,STARLINK-4303,PAYLOAD,2023-09-12 01:54:54,15.08852165,0.0001319,53.2172,187.5112,95.7532,264.361,3.1362e-05,2.11e-06,0.0,0 STARLINK-4303,1 53544U 22101T   23255.07979427  .00000211  00000-0  31362-4 0  9992,2 53544  53.2172 187.5112 0001319  95.7532 264.3610 15.08852165 58986,6917.843,95.437,540.621,538.796,0.0
53544.0,STARLINK-4303,PAYLOAD,2023-09-12 05:05:40,15.08853446,0.0001391,53.2176,186.916,101.0202,259.0946,3.7655e-05,3.12e-06,0.0,0 STARLINK-4303,1 53544U 22101T   23255.21227240  .00000312  00000-0  37655-4 0  9990,2 53544  53.2176 186.9160 0001391 101.0202 259.0946 15.08853446 59674,6917.839,95.437,540.667,538.742,0.0
53544.0,STARLINK-4303,PAYLOAD,2023-09-13 01:45:41,15.08843709,0.0001427,53.2176,183.0509,92.1629,267.9527,8.2245e-05,1.021e-05,0.0,0 STARLINK-4303,1 53544U 22101T   23256.07339822  .00001021  00000-0  82245-4 0  9998,2 53544  53.2176 183.0509 0001427  92.1629 267.9527 15.08843709 59137,6917.869,95.437,540.721,538.747,0.0
53544.0,STARLINK-4303,PAYLOAD,2023-09-13 04:56:27,15.08845615,0.0001471,53.2178,182.4542,96.6493,263.4667,9.3004e-05,1.193e-05,0.0,0 STARLINK-4303,1 53544U 22101T   23256.20587602  .00001193  00000-0  93004-4 0  9999,2 53544  53.2178 182.4542 0001471  96.6493 263.4667 15.08845615 59826,6917.863,95.437,540.746,538.711,0.0
53544.0,STARLINK-4303,PAYLOAD,2023-09-14 01:36:28,15.08840042,0.0001335,53.2171,178.5911,91.4863,268.6282,3.0615e-05,1.99e-06,0.0,0 STARLINK-4303,1 53544U 22101T   23257.06700112  .00000199  00000-0  30615-4 0  9991,2 53544  53.2171 178.5911 0001335  91.4863 268.6282 15.08840042 59287,6917.88,95.438,540.669,538.822,0.0
53544.0,STARLINK-4303,PAYLOAD,2023-09-14 04:47:15,15.0884455,0.0001313,53.2172,177.997,95.3723,264.7419,-2.0459e-05,-6.14e-06,0.0,0 STARLINK-4303,1 53544U 22101T   23257.19947944 -.00000614  00000-0 -20459-4 0  9990,2 53544  53.2172 177.9970 0001313  95.3723 264.7419 15.08844550 59973,6917.866,95.437,540.64,538.823,0.0
53544.0,STARLINK-4303,PAYLOAD,2023-09-14 19:05:44,15.0883399,0.0001337,53.2167,175.3205,93.687,266.4275,-5.5892e-05,-1.177e-05,0.0,0 STARLINK-4303,1 53544U 22101T   23257.79565055 -.00001177  00000-0 -55892-4 0  9999,2 53544  53.2167 175.3205 0001337  93.6870 266.4275 15.08833990 60067,6917.899,95.438,540.689,538.839,0.0
53544.0,STARLINK-4303,PAYLOAD,2023-09-15 03:02:39,15.08839111,0.0001353,53.2172,173.8362,86.654,273.4607,-8.8889e-06,-4.29e-06,0.0,0 STARLINK-4303,1 53544U 22101T   23258.12684737 -.00000429  00000-0 -88889-5 0  9998,2 53544  53.2172 173.8362 0001353  86.6540 273.4607 15.08839111 59442,6917.883,95.438,540.684,538.812,0.0
53544.0,STARLINK-4303,PAYLOAD,2023-09-16 02:53:25,15.08848474,0.0001208,53.218,169.3768,90.6702,269.4428,0.00012002,1.623e-05,0.0,0 STARLINK-4303,1 53544U 22101T   23259.12043842  .00001623  00000-0  12002-3 0  9992,2 53544  53.2180 169.3768 0001208  90.6702 269.4428 15.08848474 59599,6917.854,95.437,540.555,538.884,0.0
53544.0,STARLINK-4303,PAYLOAD,2023-09-16 04:28:49,15.08845038,0.0001246,53.2177,169.0787,97.526,262.5874,0.000204,2.961e-05,0.0,0 STARLINK-4303,1 53544U 22101T   23259.18667845  .00002961  00000-0  20400-3 0  9990,2 53544  53.2177 169.0787 0001246  97.5260 262.5874 15.08845038 60279,6917.865,95.437,540.592,538.868,0.0
53544.0,STARLINK-4303,PAYLOAD,2023-09-16 17:11:55,15.08832215,0.0001559,53.2169,166.6989,88.6535,271.4636,8.8852e-05,1.126e-05,0.0,0 STARLINK-4303,1 53544U 22101T   23259.71661227  .00001126  00000-0  88852-4 0  9995,2 53544  53.2169 166.6989 0001559  88.6535 271.4636 15.08832215 59681,6917.904,95.438,540.848,538.691,0.0
53544.0,STARLINK-4303,PAYLOAD,2023-09-17 02:44:14,15.0883343,0.0001261,53.2171,164.9136,90.2596,269.8541,6.061e-05,6.77e-06,0.0,0 STARLINK-4303,1 53544U 22101T   23260.11405377  .00000677  00000-0  60610-4 0  9995,2 53544  53.2171 164.9136 0001261  90.2596 269.8541 15.08833430 60414,6917.9,95.438,540.638,538.893,0.0
53544.0,STARLINK-4303,PAYLOAD,2023-09-18 02:34:59,15.08858103,0.0001319,53.2176,160.4544,82.3018,277.8123,9.8161e-05,1.275e-05,0.0,0 STARLINK-4303,1 53544U 22101T   23261.10763875  .00001275  00000-0  98161-4 0  9992,2 53544  53.2176 160.4544 0001319  82.3018 277.8123 15.08858103 59897,6917.825,95.436,540.603,538.778,0.0
53544.0,STARLINK-4303,PAYLOAD,2023-09-19 02:25:47,15.08847579,0.0001331,53.216,155.9917,86.9851,273.1293,0.00021508,3.137e-05,0.0,0 STARLINK-4303,1 53544U 22101T   23262.10124665  .00003137  00000-0  21508-3 0  9990,2 53544  53.2160 155.9917 0001331  86.9851 273.1293 15.08847579 60043,6917.857,95.437,540.643,538.801,0.0
53544.0,STARLINK-4303,PAYLOAD,2023-09-20 10:13:29,15.08838333,9.27e-05,53.2173,150.0445,122.607,237.5012,-8.122e-05,-1.58e-05,0.0,0 STARLINK-4303,1 53544U 22101T   23263.42604145 -.00001580  00000-0 -81220-4 0  9992,2 53544  53.2173 150.0445 0000927 122.6070 237.5012 15.08838333 60917,6917.885,95.438,540.392,539.109,0.0
53544.0,STARLINK-4303,PAYLOAD,2023-09-20 21:21:12,15.08823518,0.0001743,53.216,147.9624,112.0268,248.0909,-0.00034213,-5.727e-05,0.0,0 STARLINK-4303,1 53544U 22101T   23263.88973296 -.00005727  00000-0 -34213-3 0  9994,2 53544  53.2160 147.9624 0001743 112.0268 248.0909 15.08823518 60984,6917.931,95.439,541.002,538.59,0.0
53544.0,STARLINK-4303,PAYLOAD,2023-09-21 02:07:22,15.08824691,0.0001696,53.217,147.0701,115.2632,244.8536,-0.00025584,-4.356e-05,0.0,0 STARLINK-4303,1 53544U 22101T   23264.08845655 -.00004356  00000-0 -25584-3 0  9992,2 53544  53.2170 147.0701 0001696 115.2632 244.8536 15.08824691 60342,6917.927,95.439,540.965,538.619,0.0
53544.0,STARLINK-4303,PAYLOAD,2023-09-21 22:47:23,15.08843925,0.0001678,53.2162,143.2076,107.3299,252.7877,7.7616e-05,9.48e-06,0.0,0 STARLINK-4303,1 53544U 22101T   23264.94957374  .00000948  00000-0  77616-4 0  9994,2 53544  53.2162 143.2076 0001678 107.3299 252.7877 15.08843925 61143,6917.868,95.437,540.894,538.573,0.0
53544.0,STARLINK-4303,PAYLOAD,2023-09-22 01:58:09,15.08845739,0.0001559,53.2163,142.613,104.3499,255.7666,0.00033594,5.063e-05,0.0,0 STARLINK-4303,1 53544U 22101T   23265.08205592  .00005063  00000-0  33594-3 0  9997,2 53544  53.2163 142.6130 0001559 104.3499 255.7666 15.08845739 60496,6917.863,95.437,540.806,538.649,0.0
53544.0,STARLINK-4303,PAYLOAD,2023-09-22 22:38:10,15.08852791,0.000159,53.2169,138.7497,106.9745,253.1422,0.00040945,6.237e-05,0.0,0 STARLINK-4303,1 53544U 22101T   23265.94317697  .00006237  00000-0  40945-3 0  9994,2 53544  53.2169 138.7497 0001590 106.9745 253.1422 15.08852791 61298,6917.841,95.437,540.806,538.606,0.0
53544.0,STARLINK-4303,PAYLOAD,2023-09-24 00:04:20,15.08845655,0.0001365,53.2163,133.9895,101.2942,258.8204,6.1885e-05,6.97e-06,0.0,0 STARLINK-4303,1 53544U 22101T   23267.00301541  .00000697  00000-0  61885-4 0  9995,2 53544  53.2163 133.9895 0001365 101.2942 258.8204 15.08845655 60782,6917.863,95.437,540.672,538.784,0.0
53544.0,STARLINK-4303,PAYLOAD,2023-09-24 19:08:58,15.08841815,0.0001322,53.2164,130.4217,98.0318,262.0824,-2.9259e-05,-7.54e-06,0.0,0 STARLINK-4303,1 53544U 22101T   23267.79789790 -.00000754  00000-0 -29259-4 0  9992,2 53544  53.2164 130.4217 0001322  98.0318 262.0824 15.08841815 60909,6917.875,95.437,540.654,538.825,0.0
